NORAD_CAT_ID,OBJECT_NAME,OBJECT_TYPE,EPOCH,MEAN_MOTION,ECCENTRICITY,INCLINATION,RA_OF_ASC_NODE,ARG_OF_PERICENTER,MEAN_ANOMALY,BSTAR,MEAN_MOTION_DOT,MEAN_MOTION_DDOT,TLE_LINE0,TLE_LINE1,TLE_LINE2,SEMIMAJOR_AXIS,PERIOD,APOGEE,PERIGEE,DECAYED
53913.0,STARLINK-5053,PAYLOAD,2022-10-25 20:00:01,15.73137704,0.0001368,53.2148,100.2224,60.0832,105.5023,0.00063833,0.00089687,0.0,0 STARLINK-5053,1 53913U 22119AD  22298.83334491  .00089687  00000-0  63833-3 0  9998,2 53913  53.2148 100.2224 0001368  60.0832 105.5023 15.73137704  5294,6728.073,91.537,350.858,349.017,0.0
53913.0,STARLINK-5053,PAYLOAD,2022-10-25 22:00:01,15.73143142,0.000135,53.2147,99.8101,57.2408,220.6299,0.00075281,0.00106116,0.0,0 STARLINK-5053,1 53913U 22119AD  22298.91668981  .00106116  00000-0  75281-3 0  9998,2 53913  53.2147  99.8101 0001350  57.2408 220.6299 15.73143142  1303,6728.057,91.536,350.831,349.014,0.0
53913.0,STARLINK-5053,PAYLOAD,2022-10-26 14:00:01,15.73281206,0.000124,53.2151,96.5097,59.2241,36.4302,-0.00066753,-0.00093591,0.0,0 STARLINK-5053,1 53913U 22119AD  22299.58334491 -.00093591  00000-0 -66753-3 0  9996,2 53913  53.2151  96.5097 0001240  59.2241  36.4302 15.73281206  5419,6727.6640000000025,91.528,350.36300000000006,348.694,0.0
53913.0,STARLINK-5053,PAYLOAD,2022-10-26 22:00:00,15.73219718,0.0001363,53.2146,94.8614,49.5708,135.0695,-0.00013744,-0.0001988,0.0,0 STARLINK-5053,1 53913U 22119AD  22299.91667824 -.00019880  00000-0 -13744-3 0  9993,2 53913  53.2146  94.8614 0001363  49.5708 135.0695 15.73219718  1309,6727.839,91.532,350.621,348.787,0.0
53913.0,STARLINK-5053,PAYLOAD,2022-10-27 04:00:00,15.73246668,0.0001364,53.2148,93.6225,58.4356,102.9373,-0.00024211,-0.00034527,0.0,0 STARLINK-5053,1 53913U 22119AD  22300.16667824 -.00034527  00000-0 -24211-3 0  9999,2 53913  53.2148  93.6225 0001364  58.4356 102.9373 15.73246668  5501,6727.762,91.53,350.545,348.709,0.0
53913.0,STARLINK-5053,PAYLOAD,2022-10-27 14:00:01,15.73271106,0.0001213,53.2152,91.561,54.0169,308.6352,-0.00050473,-0.00071074,0.0,0 STARLINK-5053,1 53913U 22119AD  22300.58335648 -.00071074  00000-0 -50473-3 0  9998,2 53913  53.2152  91.5610 0001213  54.0169 308.6352 15.73271106  5561,6727.691999999999,91.529,350.374,348.741,0.0
53913.0,STARLINK-5053,PAYLOAD,2022-10-27 22:00:00,15.73230478,0.000138,53.2152,89.9126,41.6951,49.8755,-5.387100000000001e-05,-8.183e-05,0.0,0 STARLINK-5053,1 53913U 22119AD  22300.91667824 -.00008183  00000-0 -53871-4 0  9996,2 53913  53.2152  89.9126 0001380  41.6951  49.8755 15.73230478  1306,6727.808000000001,91.531,350.602,348.745,0.0
53913.0,STARLINK-5053,PAYLOAD,2022-10-28 06:00:00,15.73208375,0.0001284,53.2156,88.26100000000002,48.1303,132.4067,-0.00027126,-0.00038529,0.0,0 STARLINK-5053,1 53913U 22119AD  22301.25001157 -.00038529  00000-0 -27126-3 0  9995,2 53913  53.2156  88.2610 0001284  48.1303 132.4067 15.73208375  5676,6727.871,91.533,350.6,348.872,0.0
53913.0,STARLINK-5053,PAYLOAD,2022-10-28 14:00:01,15.73162206,0.0001498,53.2157,86.6126,46.7873,222.7423,0.00021138,0.00029101,0.0,0 STARLINK-5053,1 53913U 22119AD  22301.58335648  .00029101  00000-0  21138-3 0  9997,2 53913  53.2157  86.6126 0001498  46.7873 222.7423 15.73162206  1301,6728.003000000002,91.535,350.876,348.86,0.0
53913.0,STARLINK-5053,PAYLOAD,2022-10-28 22:00:01,15.73211464,0.0001612,53.2151,84.9642,38.5068,319.9102,-3.6209e-05,-5.701e-05,0.0,0 STARLINK-5053,1 53913U 22119AD  22301.91668981 -.00005701  00000-0 -36209-4 0  9991,2 53913  53.2151  84.9642 0001612  38.5068 319.9102 15.73211464  5771,6727.861999999999,91.533,350.81199999999984,348.64300000000014,0.0
53913.0,STARLINK-5053,PAYLOAD,2022-10-29 12:00:00,15.73197447,0.0001503,53.2156,82.0764,46.0379,17.954,0.00044775,0.00062682,0.0,0 STARLINK-5053,1 53913U 22119AD  22302.50001157  .00062682  00000-0  44775-3 0  9998,2 53913  53.2156  82.0764 0001503  46.0379  17.9540 15.73197447  1308,6727.901999999999,91.533,350.779,348.756,0.0
53913.0,STARLINK-5053,PAYLOAD,2022-10-29 22:00:01,15.73249739,0.0001619,53.2155,80.0157,33.2749,231.9772,-5.921100000000001e-05,-8.94e-05,0.0,0 STARLINK-5053,1 53913U 22119AD  22302.91668981 -.00008940  00000-0 -59211-4 0  9998,2 53913  53.2155  80.0157 0001619  33.2749 231.9772 15.73249739  1305,6727.753000000002,91.53,350.708,348.529,0.0
53913.0,STARLINK-5053,PAYLOAD,2022-10-30 00:00:00,15.7326658,0.0001599,53.2156,79.6029,33.3716,344.0578,-0.00039911,-0.0005642,0.0,0 STARLINK-5053,1 53913U 22119AD  22303.00001157 -.00056420  00000-0 -39911-3 0  9995,2 53913  53.2156  79.6029 0001599  33.3716 344.0578 15.73266580  5947,6727.705,91.529,350.646,348.495,0.0
53913.0,STARLINK-5053,PAYLOAD,2022-10-30 14:00:01,15.73200683,0.0001591,53.2158,76.7161,28.5179,54.6035,-0.00082883,-0.00115367,0.0,0 STARLINK-5053,1 53913U 22119AD  22303.58334491 -.00115367  00000-0 -82883-3 0  9990,2 53913  53.2158  76.7161 0001591  28.5179  54.6035 15.73200683  1305,6727.893,91.533,350.829,348.68800000000016,0.0
53913.0,STARLINK-5053,PAYLOAD,2022-10-30 22:00:01,15.73112854,0.0001757,53.2152,75.0671,24.7877,147.2838,0.00039348,0.00054758,0.0,0 STARLINK-5053,1 53913U 22119AD  22303.91668981  .00054758  00000-0  39348-3 0  9993,2 53913  53.2152  75.0671 0001757  24.7877 147.2838 15.73112854  1306,6728.144,91.538,351.191,348.827,0.0
53913.0,STARLINK-5053,PAYLOAD,2022-10-31 14:00:01,15.73205108,0.0001824,53.2154,71.768,31.8702,317.8713,-0.00022646,-0.0003229,0.0,0 STARLINK-5053,1 53913U 22119AD  22304.58334491 -.00032290  00000-0 -22646-3 0  9995,2 53913  53.2154  71.7680 0001824  31.8702 317.8713 15.73205108  1304,6727.880999999999,91.533,350.973,348.51800000000014,0.0
53913.0,STARLINK-5053,PAYLOAD,2022-10-31 20:00:01,15.73189471,0.0001966999999999,53.2155,70.5317,27.1752,299.3243,0.00010221,0.00013741,0.0,0 STARLINK-5053,1 53913U 22119AD  22304.83335648  .00013741  00000-0  10221-3 0  9992,2 53913  53.2155  70.5317 0001967  27.1752 299.3243 15.73189471  6233,6727.925,91.534,351.11400000000015,348.467,0.0
53913.0,STARLINK-5053,PAYLOAD,2022-10-31 22:00:01,15.73201672,0.000195,53.2154,70.1187,26.8412,51.8852,-5.5623e-05,-8.421e-05,0.0,0 STARLINK-5053,1 53913U 22119AD  22304.91668981 -.00008421  00000-0 -55623-4 0  9997,2 53913  53.2154  70.1187 0001950  26.8412  51.8852 15.73201672  1302,6727.89,91.533,351.06699999999995,348.4430000000001,0.0
53913.0,STARLINK-5053,PAYLOAD,2022-11-01 14:00:01,15.73198658,0.0002123,53.2157,66.8194,31.3351,225.1975,0.0002753999999999,0.00038206,0.0,0 STARLINK-5053,1 53913U 22119AD  22305.58334491  .00038206  00000-0  27540-3 0  9995,2 53913  53.2157  66.8194 0002123  31.3351 225.1975 15.73198658  1302,6727.899,91.533,351.19199999999995,348.336,0.0
53913.0,STARLINK-5053,PAYLOAD,2022-11-01 22:00:00,15.73260844,0.0002101,53.2152,65.1698,24.2854,321.1843,-0.00079487,-0.00111017,0.0,0 STARLINK-5053,1 53913U 22119AD  22305.91667824 -.00111017  00000-0 -79487-3 0  9992,2 53913  53.2152  65.1698 0002101  24.2854 321.1843 15.73260844  1301,6727.722,91.53,351.0,348.173,0.0
53913.0,STARLINK-5053,PAYLOAD,2022-11-02 04:00:00,15.73173833,0.0001909,53.2153,63.9311,24.1187,298.0855,-6.6864e-06,-1.558e-05,0.0,0 STARLINK-5053,1 53913U 22119AD  22306.16667824 -.00001558  00000-0 -66864-5 0  9995,2 53913  53.2153  63.9311 0001909  24.1187 298.0855 15.73173833  6449,6727.97,91.535,351.119,348.55,0.0
53913.0,STARLINK-5053,PAYLOAD,2022-11-02 14:00:01,15.73155798,0.000223,53.2158,61.8695,25.808000000000003,137.5193,0.00044551,0.00062254,0.0,0 STARLINK-5053,1 53913U 22119AD  22306.58334491  .00062254  00000-0  44551-3 0  9997,2 53913  53.2158  61.8695 0002230  25.8080 137.5193 15.73155798  1306,6728.021,91.536,351.38699999999994,348.386,0.0
53913.0,STARLINK-5053,PAYLOAD,2022-11-02 18:00:02,15.73156891,0.0002343999999999,53.216,61.04,26.4334,1.4112,0.00086824,0.00122808,0.0,0 STARLINK-5053,1 53913U 22119AD  22306.75002315  .00122808  00000-0  86824-3 0  9994,2 53913  53.2160  61.0400 0002344  26.4334   1.4112 15.73156891  6535,6728.018,91.536,351.46,348.306,0.0
53913.0,STARLINK-5053,PAYLOAD,2022-11-02 22:00:00,15.73217358,0.0002279,53.2155,60.2211,23.3811,228.8156,0.00033814,0.0004714,0.0,0 STARLINK-5053,1 53913U 22119AD  22306.91667824  .00047140  00000-0  33814-3 0  9990,2 53913  53.2155  60.2211 0002279  23.3811 228.8156 15.73217358  1302,6727.846,91.532,351.244,348.177,0.0
53913.0,STARLINK-5053,PAYLOAD,2022-11-03 04:00:00,15.73147788,0.0002202,53.2169,58.9657,32.4282,196.5496,0.00051163,0.00071641,0.0,0 STARLINK-5053,1 53913U 22119AD  22307.16667824  .00071641  00000-0  51163-3 0  9998,2 53913  53.2169  58.9657 0002202  32.4282 196.5496 15.73147788  6609,6728.044,91.536,351.391,348.42800000000005,0.0
53913.0,STARLINK-5053,PAYLOAD,2022-11-03 14:00:01,15.73264789,0.0002374,53.216,56.9217,16.1952,54.0592,-0.00062881,-0.00088209,0.0,0 STARLINK-5053,1 53913U 22119AD  22307.58334491 -.00088209  00000-0 -62881-3 0  9994,2 53913  53.2160  56.9217 0002374  16.1952  54.0592 15.73264789  6676,6727.71,91.529,351.173,347.978,0.0
53913.0,STARLINK-5053,PAYLOAD,2022-11-03 22:00:00,15.73226694,0.0002446,53.2157,55.2716,15.143,144.08100000000005,-0.00041427,-0.00058435,0.0,0 STARLINK-5053,1 53913U 22119AD  22307.91667824 -.00058435  00000-0 -41427-3 0  9991,2 53913  53.2157  55.2716 0002446  15.1430 144.0810 15.73226694  1309,6727.819,91.532,351.33,348.038,0.0
53913.0,STARLINK-5053,PAYLOAD,2022-11-04 06:00:00,15.73181005,0.000228,53.2158,53.6206,17.6746,230.4872,0.00012839,0.00017422,0.0,0 STARLINK-5053,1 53913U 22119AD  22308.25001157  .00017422  00000-0  12839-3 0  9994,2 53913  53.2158  53.6206 0002280  17.6746 230.4872 15.73181005  6779,6727.949000000001,91.534,351.348,348.28,0.0
53913.0,STARLINK-5053,PAYLOAD,2022-11-04 14:00:01,15.73169641,0.0002583999999999,53.2158,51.9709,17.712,319.3695,0.00018291,0.00025095,0.0,0 STARLINK-5053,1 53913U 22119AD  22308.58334491  .00025095  00000-0  18291-3 0  9993,2 53913  53.2158  51.9709 0002584  17.7120 319.3695 15.73169641  1308,6727.982,91.535,351.585,348.108,0.0
